VendorID,VendorName,Street,City ,State,Zip 
1,Johna Spawton,4 Main Circle,Brooklyn,NY,49278
2,Manon Derry,4 Luster Center,San Antonio,TX,85607
3,Sampson Kaveney,84 Dennis Trail,Albuquerque,NM,23466
4,Stevie Southworth,0173 Longview Way,Houston,TX,21636
5,Andonis Traice,81006 Briar Crest Lane,El Paso,TX,84017
6,Hirsch Barbour,568 Green Ridge Trail,Jackson,MS,12121
7,Katherine Nozzolii,63 Lakewood Court,Seattle,WA,17770
8,Saudra Blinckhorne,453 Fieldstone Alley,Sacramento,CA,85496
9,Casandra Kinglake,1728 Sachs Avenue,Chicago,IL,38578
10,Ardys Behnecken,4173 Thompson Parkway,Columbia,SC,64619
11,Aaren Weymouth,0 Schiller Trail,Salt Lake City,UT,16195
12,Jolee Bonder,4 Straubel Hill,San Bernardino,CA,37704
13,Violetta Macallam,8 Hayes Center,Waco,TX,77087
14,Kinnie Glander,26625 Grayhawk Way,Carson City,NV,98662
15,Ruy Epton,100 Alpine Center,Jamaica,NY,96608
16,Jemimah Machen,68 Di Loreto Trail,New York City,NY,48725
17,Quinta Stedall,340 Roth Park,Cincinnati,OH,32413
18,Arel Kermath,080 Karstens Point,Cincinnati,OH,96132
19,Caryl Waltering,124 Ridgeview Road,Phoenix,AZ,43595
20,Torry Gossage,8495 Buell Parkway,Sacramento,CA,349
21,Tedi Lambotin,35190 Schlimgen Plaza,Seminole,FL,68084
22,Heall Litchmore,4504 Susan Pass,San Antonio,TX,6547
23,Rik Vidgen,03 Del Sol Alley,Saint Louis,MO,652
24,Hilliary Leng,8 Lien Plaza,Boca Raton,FL,2327
25,Tuckie McPaik,1891 Independence Alley,Albany,GA,6972
26,Dinny Couche,75 Pleasure Avenue,Bradenton,FL,83233
27,Edmon Riseborough,36825 Farmco Street,Detroit,MI,24196
28,Bree Gidden,1 Derek Point,Omaha,NE,15619
29,Opalina Chester,51818 Badeau Lane,Stamford,CT,19057
30,Lorin Saunter,05 Leroy Way,Oklahoma City,OK,46980
31,Kerry Melmore,44402 Fisk Street,Knoxville,TN,58814
32,Celestina Ridgeway,76 Mandrake Trail,Atlanta,GA,58235
33,Lazaro Tytcomb,08 Transport Crossing,Chicago,IL,18812
34,Cassy Jahan,6995 Grayhawk Lane,Pasadena,TX,10853
35,Inglebert Rentz,4 Beilfuss Way,Clearwater,FL,82684
36,Dolli Mannering,3066 Truax Place,Washington,DC,30219
37,Allissa Duddan,9 Carberry Lane,Los Angeles,CA,33377
38,Michail Pickring,32 Village Green Lane,San Francisco,CA,35519
39,Leroi Ivers,3 Elgar Plaza,West Palm Beach,FL,74335
40,Lea Langeren,963 Atwood Road,Carol Stream,IL,19527
41,Lesly Lanon,04201 Knutson Hill,Harrisburg,PA,57241
42,Betsey Ballance,7740 Glacier Hill Center,Dallas,TX,59297
43,Curtice Hindrich,7 Elmside Court,Watertown,MA,74697
44,Peggi Puckett,20 Gateway Junction,Bowie,MD,68166
45,Aguistin Nutley,04 Dennis Circle,Scranton,PA,7406
46,Susette Gillatt,7 Kim Center,San Jose,CA,21602
47,Tiffy Lockton,0 Briar Crest Way,Wilkes Barre,PA,20698
48,Lexie Dalinder,101 Northwestern Alley,Brooklyn,NY,20884
49,Myer Emslie,919 Sutherland Center,Shreveport,LA,50183
50,Mimi Goodfellow,8946 Stuart Way,Saint Petersburg,FL,51862
